*******************************************************************************
Ephemeris / WWW_USER Mon Mar 10 06:47:36 2025 Pasadena, USA      / Horizons    
*******************************************************************************
Target body name: (2018 VS8)                      {source: JPL#8}
Center body name: Earth (399)                     {source: DE441}
Center-site name: Mauna Kea
*******************************************************************************
Start time      : A.D. 2018-Nov-30 03:51:00.0000 UT      
Stop  time      : A.D. 2018-Nov-30 16:29:00.0000 UT      
Step-size       : 1 minutes
*******************************************************************************
Target pole/equ : undefined
Target radii    : undefined                                                    
Center geodetic : 204.5278, 19.8260847, 4.21024   {E-lon(deg),Lat(deg),Alt(km)}
Center cylindric: 204.5278, 6006.35451, 2151.0229 {E-lon(deg),Dxy(km),Dz(km)}
Center pole/equ : ITRF93                          {East-longitude positive}
Center radii    : 6378.137, 6378.137, 6356.752 km {Equator_a, b, pole_c}       
Target primary  : Sun
Vis. interferer : MOON (R_eq= 1737.400) km        {source: DE441}
Rel. light bend : Sun                             {source: DE441}
Rel. lght bnd GM: 1.3271E+11 km^3/s^2                                          
Small-body perts: Yes                             {source: SB441-N16}
Atmos refraction: NO (AIRLESS)
RA format       : HMS
Time format     : CAL 
Calendar mode   : Mixed Julian/Gregorian
RTS-only print  : NO       
EOP file        : eop.250307.p250603                                           
EOP coverage    : DATA-BASED 1962-JAN-20 TO 2025-MAR-07. PREDICTS-> 2025-JUN-02
Units conversion: 1 au= 149597870.700 km, c= 299792.458 km/s, 1 day= 86400.0 s 
Table cut-offs 1: Elevation (-90.0deg=NO ),Airmass (>38.000=NO), Daylight (YES)
Table cut-offs 2: Solar elongation (  0.0,180.0=NO ),Local Hour Angle( 0.0=NO )
Table cut-offs 3: RA/DEC angular rate (     0.0=NO )                           
*******************************************************************************
Initial IAU76/J2000 heliocentric ecliptic osculating elements (au, days, deg.):
  EPOCH=  2458433.5 ! 2018-Nov-11.00 (TDB)         Residual RMS= .33953        
   EC= .5263784885368822   QR= .9373233613851428   TP= 2458465.1575556668      
   OM= 53.89076972236643   W=  33.71683445616237   IN= 3.430463171034721       
  Equivalent ICRF heliocentric cartesian coordinates (au, au/d):
   X= 6.888560011548344E-01  Y= 6.928655939663307E-01  Z= 2.929974091538562E-01
  VX=-1.813811938800288E-02 VY= 8.693003909227039E-03 VZ= 5.111678677431928E-03
Asteroid physical parameters (km, seconds, rotational period in hours):        
   GM= n.a.                RAD= n.a.               ROTPER= n.a.                
   H= 27.2                 G= .150                 B-V= n.a.                   
                           ALBEDO= n.a.            STYP= n.a.                  
*******************************************************************************
 Date__(UT)__HR:MN     R.A._________(ICRF)_________DEC
******************************************************
$$SOE
 2018-Nov-30 07:57     13 06 24.869145 +08 03 19.90076
 2018-Nov-30 07:58     13 06 24.963257 +08 03 19.33332
 2018-Nov-30 07:59     13 06 25.057319 +08 03 18.76622
 2018-Nov-30 08:00     13 06 25.151329 +08 03 18.19945
 2018-Nov-30 08:01     13 06 25.245289 +08 03 17.63301
 2018-Nov-30 08:02     13 06 25.339196 +08 03 17.06691
 2018-Nov-30 08:03     13 06 25.433051 +08 03 16.50115
 2018-Nov-30 08:04     13 06 25.526852 +08 03 15.93572
 2018-Nov-30 08:05     13 06 25.620599 +08 03 15.37062
 2018-Nov-30 08:06     13 06 25.714291 +08 03 14.80585
 2018-Nov-30 08:07     13 06 25.807928 +08 03 14.24141
 2018-Nov-30 08:08     13 06 25.901510 +08 03 13.67731
 2018-Nov-30 08:09     13 06 25.995035 +08 03 13.11354
 2018-Nov-30 08:10     13 06 26.088502 +08 03 12.55010
 2018-Nov-30 08:11     13 06 26.181913 +08 03 11.98698
 2018-Nov-30 08:12     13 06 26.275264 +08 03 11.42420
 2018-Nov-30 08:13     13 06 26.368557 +08 03 10.86175
 2018-Nov-30 08:14     13 06 26.461790 +08 03 10.29962
 2018-Nov-30 08:15     13 06 26.554963 +08 03 09.73782
 2018-Nov-30 08:16     13 06 26.648075 +08 03 09.17635
 2018-Nov-30 08:17     13 06 26.741126 +08 03 08.61521
 2018-Nov-30 08:18     13 06 26.834115 +08 03 08.05439
 2018-Nov-30 08:19     13 06 26.927041 +08 03 07.49390
 2018-Nov-30 08:20     13 06 27.019904 +08 03 06.93374
 2018-Nov-30 08:21     13 06 27.112703 +08 03 06.37389
 2018-Nov-30 08:22     13 06 27.205437 +08 03 05.81438
 2018-Nov-30 08:23     13 06 27.298106 +08 03 05.25518
 2018-Nov-30 08:24     13 06 27.390710 +08 03 04.69631
 2018-Nov-30 08:25     13 06 27.483248 +08 03 04.13776
 2018-Nov-30 08:26     13 06 27.575718 +08 03 03.57953
 2018-Nov-30 08:27     13 06 27.668122 +08 03 03.02163
 2018-Nov-30 08:28     13 06 27.760457 +08 03 02.46404
 2018-Nov-30 08:29     13 06 27.852723 +08 03 01.90678
 2018-Nov-30 08:30     13 06 27.944920 +08 03 01.34983
 2018-Nov-30 08:31     13 06 28.037048 +08 03 00.79320
 2018-Nov-30 08:32     13 06 28.129104 +08 03 00.23689
 2018-Nov-30 08:33     13 06 28.221090 +08 02 59.68090
 2018-Nov-30 08:34     13 06 28.313004 +08 02 59.12522
 2018-Nov-30 08:35     13 06 28.404846 +08 02 58.56986
 2018-Nov-30 08:36     13 06 28.496615 +08 02 58.01481
 2018-Nov-30 08:37     13 06 28.588311 +08 02 57.46008
 2018-Nov-30 08:38     13 06 28.679933 +08 02 56.90567
 2018-Nov-30 08:39     13 06 28.771480 +08 02 56.35156
 2018-Nov-30 08:40     13 06 28.862952 +08 02 55.79777
 2018-Nov-30 08:41     13 06 28.954348 +08 02 55.24430
 2018-Nov-30 08:42     13 06 29.045668 +08 02 54.69113
 2018-Nov-30 08:43     13 06 29.136911 +08 02 54.13827
 2018-Nov-30 08:44     13 06 29.228077 +08 02 53.58573
 2018-Nov-30 08:45     13 06 29.319164 +08 02 53.03349
 2018-Nov-30 08:46     13 06 29.410173 +08 02 52.48156
 2018-Nov-30 08:47     13 06 29.501103 +08 02 51.92994
 2018-Nov-30 08:48     13 06 29.591953 +08 02 51.37863
 2018-Nov-30 08:49     13 06 29.682723 +08 02 50.82762
 2018-Nov-30 08:50     13 06 29.773412 +08 02 50.27692
 2018-Nov-30 08:51     13 06 29.864019 +08 02 49.72653
 2018-Nov-30 08:52     13 06 29.954544 +08 02 49.17644
 2018-Nov-30 08:53     13 06 30.044987 +08 02 48.62665
 2018-Nov-30 08:54     13 06 30.135346 +08 02 48.07717
 2018-Nov-30 08:55     13 06 30.225622 +08 02 47.52798
 2018-Nov-30 08:56     13 06 30.315814 +08 02 46.97910
 2018-Nov-30 08:57     13 06 30.405920 +08 02 46.43052
 2018-Nov-30 08:58     13 06 30.495942 +08 02 45.88224
 2018-Nov-30 08:59     13 06 30.585877 +08 02 45.33426
 2018-Nov-30 09:00     13 06 30.675726 +08 02 44.78658
 2018-Nov-30 09:01     13 06 30.765488 +08 02 44.23919
 2018-Nov-30 09:02     13 06 30.855162 +08 02 43.69210
 2018-Nov-30 09:03     13 06 30.944748 +08 02 43.14531
 2018-Nov-30 09:04     13 06 31.034245 +08 02 42.59881
 2018-Nov-30 09:05     13 06 31.123654 +08 02 42.05261
 2018-Nov-30 09:06     13 06 31.212972 +08 02 41.50670
 2018-Nov-30 09:07     13 06 31.302200 +08 02 40.96108
 2018-Nov-30 09:08     13 06 31.391337 +08 02 40.41576
 2018-Nov-30 09:09     13 06 31.480383 +08 02 39.87072
 2018-Nov-30 09:10     13 06 31.569337 +08 02 39.32598
 2018-Nov-30 09:11     13 06 31.658198 +08 02 38.78153
 2018-Nov-30 09:12     13 06 31.746967 +08 02 38.23736
 2018-Nov-30 09:13     13 06 31.835642 +08 02 37.69349
 2018-Nov-30 09:14     13 06 31.924223 +08 02 37.14990
 2018-Nov-30 09:15     13 06 32.012709 +08 02 36.60659
 2018-Nov-30 09:16     13 06 32.101100 +08 02 36.06357
 2018-Nov-30 09:17     13 06 32.189396 +08 02 35.52084
 2018-Nov-30 09:18     13 06 32.277595 +08 02 34.97839
 2018-Nov-30 09:19     13 06 32.365698 +08 02 34.43622
 2018-Nov-30 09:20     13 06 32.453704 +08 02 33.89434
 2018-Nov-30 09:21     13 06 32.541612 +08 02 33.35273
 2018-Nov-30 09:22     13 06 32.629421 +08 02 32.81141
 2018-Nov-30 09:23     13 06 32.717132 +08 02 32.27037
 2018-Nov-30 09:24     13 06 32.804744 +08 02 31.72960
 2018-Nov-30 09:25     13 06 32.892256 +08 02 31.18911
 2018-Nov-30 09:26     13 06 32.979668 +08 02 30.64890
 2018-Nov-30 09:27     13 06 33.066979 +08 02 30.10896
 2018-Nov-30 09:28     13 06 33.154188 +08 02 29.56930
 2018-Nov-30 09:29     13 06 33.241296 +08 02 29.02992
 2018-Nov-30 09:30     13 06 33.328302 +08 02 28.49080
 2018-Nov-30 09:31     13 06 33.415205 +08 02 27.95196
 2018-Nov-30 09:32     13 06 33.502005 +08 02 27.41339
 2018-Nov-30 09:33     13 06 33.588701 +08 02 26.87509
 2018-Nov-30 09:34     13 06 33.675292 +08 02 26.33706
 2018-Nov-30 09:35     13 06 33.761779 +08 02 25.79930
 2018-Nov-30 09:36     13 06 33.848161 +08 02 25.26180
 2018-Nov-30 09:37     13 06 33.934437 +08 02 24.72457
 2018-Nov-30 09:38     13 06 34.020607 +08 02 24.18761
 2018-Nov-30 09:39     13 06 34.106670 +08 02 23.65091
 2018-Nov-30 09:40     13 06 34.192626 +08 02 23.11448
 2018-Nov-30 09:41     13 06 34.278475 +08 02 22.57831
 2018-Nov-30 09:42     13 06 34.364215 +08 02 22.04240
 2018-Nov-30 09:43     13 06 34.449847 +08 02 21.50675
 2018-Nov-30 09:44     13 06 34.535370 +08 02 20.97137
 2018-Nov-30 09:45     13 06 34.620783 +08 02 20.43624
 2018-Nov-30 09:46     13 06 34.706086 +08 02 19.90137
 2018-Nov-30 09:47     13 06 34.791279 +08 02 19.36675
 2018-Nov-30 09:48     13 06 34.876361 +08 02 18.83239
 2018-Nov-30 09:49     13 06 34.961331 +08 02 18.29829
 2018-Nov-30 09:50     13 06 35.046190 +08 02 17.76444
 2018-Nov-30 09:51     13 06 35.130937 +08 02 17.23085
 2018-Nov-30 09:52     13 06 35.215570 +08 02 16.69750
 2018-Nov-30 09:53     13 06 35.300091 +08 02 16.16441
 2018-Nov-30 09:54     13 06 35.384498 +08 02 15.63157
 2018-Nov-30 09:55     13 06 35.468790 +08 02 15.09897
 2018-Nov-30 09:56     13 06 35.552969 +08 02 14.56663
 2018-Nov-30 09:57     13 06 35.637032 +08 02 14.03453
 2018-Nov-30 09:58     13 06 35.720980 +08 02 13.50268
 2018-Nov-30 09:59     13 06 35.804812 +08 02 12.97107
